STARLINK-35397          
1 65825U 25221C   26068.43422523  .00016618  00000+0  57239-3 0  9995
2 65825  53.1597  89.5770 0001249  79.9903 280.1239 15.30173529 26040
2025-313BD              
1 67299U 25313BD  26068.62968741  .00081010  00000+0  27634-2 0  9995
2 67299  97.3970 145.2850 0007287 333.4514  26.6352 15.30002360 10838
